STARLINK-5020           
1 55458U 23015K   23045.81361261  .00065209  00000+0  49675-3 0  9995
2 55458  43.0003 313.5006 0001839 260.9341  99.1319 15.71358584  2127
STARLINK-5669           
1 55459U 23015L   23045.81382263  .00055400  00000+0  42309-3 0  9990
2 55459  43.0003 313.5022 0001930 250.4543 109.6116 15.71355873  2126
STARLINK-5678           
1 55460U 23015M   23045.87727836  .00044162  00000+0  33821-3 0  9999
2 55460  42.9999 313.1199 0001390 257.0335 103.0378 15.71371074  2133
STARLINK-5646           
1 55461U 23015N   23045.81392677  .00015894  00000+0  12434-3 0  9992
2 55461  43.0002 313.5035 0001560 275.0518  85.0171 15.71370213  2129
STARLINK-5673           
1 55462U 23015P   23045.81329633  .00053605  00000+0  40976-3 0  9999
2 55462  43.0000 313.4994 0001814 261.7962  98.2700 15.71345309  2120
STARLINK-5677           
1 55463U 23015Q   23045.87706847  .00040933  00000+0  31391-3 0  9993
2 55463  42.9999 313.1177 0001862 262.1242  97.9414 15.71366209  2136
STARLINK-5676           
1 55464U 23015R   23045.81298294  .00067265  00000+0  51248-3 0  9990
2 55464  43.0001 313.4966 0001762 262.4102  97.6565 15.71344884  2127
STARLINK-5674           
1 55465U 23015S   23045.94031468  .00062391  00000+0  47535-3 0  9992
2 55465  43.0000 312.7311 0001769 257.7590 102.3080 15.71371019  1954
STARLINK-5628           
1 55466U 23015T   23045.81255996  .00060869  00000+0  46425-3 0  9998
2 55466  43.0001 313.4924 0001903 260.0085 100.0568 15.71353930  2128
STARLINK-5679           
1 55467U 23015U   23045.81340302  .00053375  00000+0  40778-3 0  9994
2 55467  43.0001 313.5010 0001683 255.7074 104.3607 15.71360260  2125
STARLINK-5672           
1 55468U 23015V   23045.94000346  .00110341  00000+0  83195-3 0  9997
2 55468  42.9995 312.7272 0001399 262.5406  97.5303 15.71407689  2141
STARLINK-5681           
1 55469U 23015W   23045.81308505  .00070169  00000+0  53451-3 0  9997
2 55469  43.0002 313.4968 0002024 271.6125  88.4511 15.71333699  2125
STARLINK-5708           
1 55470U 23015X   23045.81277138  .00046117  00000+0  35322-3 0  9999
2 55470  43.0000 313.4947 0001766 281.6959  78.3711 15.71352199  2126
STARLINK-5711           
1 55471U 23015Y   23045.81266610  .00087539  00000+0  66364-3 0  9996
2 55471  43.0001 313.4926 0001803 252.3451 107.7220 15.71368015  2125
STARLINK-5705           
1 55472U 23015Z   23045.93937418  .00091424  00000+0  69299-3 0  9999
2 55472  43.0003 312.7250 0002430 280.5793  79.4801 15.71353963  2147
STARLINK-5687           
1 55473U 23015AA  23045.74891376  .00117184  00000+0  88167-3 0  9998
2 55473  43.0001 313.8756 0002157 244.7626 115.3018 15.71431722  2119
STARLINK-5689           
1 55474U 23015AB  23045.93905356  .00083600  00000+0  63415-3 0  9998
2 55474  43.0000 312.7207 0003136 295.2917  64.7626 15.71367771  2147
STARLINK-5650           
1 55475U 23015AC  23045.93947559  .00067496  00000+0  51432-3 0  9991
2 55475  43.0001 312.7246 0001932 282.8610  77.2042 15.71339486  2149
STARLINK-5596           
1 55476U 23015AD  23045.83334491 -.00166281  00000+0 -81050-3 0  9999
2 55476  42.9999 312.6100 0016074 244.3975 181.8595 15.81571174  1307
STARLINK-5685           
1 55477U 23015AE  23045.93916035  .00091250  00000+0  69050-3 0  9998
2 55477  43.0002 312.7207 0002835 301.7659  58.2933 15.71393656  2143
STARLINK-5691           
1 55478U 23015AF  23045.93842331  .00052907  00000+0  40399-3 0  9997
2 55478  43.0000 312.7158 0001458 247.9746 112.0967 15.71376299  2145
STARLINK-5688           
1 55479U 23015AG  23045.74857946  .00069198  00000+0  52604-3 0  9997
2 55479  43.0000 313.8738 0002286 240.0205 120.0436 15.71386371  2115
STARLINK-5690           
1 55480U 23015AH  23045.93852653  .00015584  00000+0  12198-3 0  9994
2 55480  43.0002 312.7179 0001419 250.3573 109.7142 15.71371029  1958
STARLINK-5694           
1 55481U 23015AJ  23045.93884436  .00068166  00000+0  51858-3 0  9999
2 55481  42.9998 312.7195 0001870 263.8931  96.1723 15.71374970  2141
STARLINK-5693           
1 55482U 23015AK  23045.74710400  .00062775  00000+0  47915-3 0  9997
2 55482  43.0002 313.8616 0002250 278.8006  81.2607 15.71324479  2114
STARLINK-5692           
1 55483U 23015AL  23045.93831759  .00061638  00000+0  46982-3 0  9990
2 55483  43.0004 312.7146 0002250 234.2323 125.8335 15.71363556  2146
STARLINK-5696           
1 55484U 23015AM  23045.93800413  .00068690  00000+0  52295-3 0  9993
2 55484  43.0001 312.7130 0002393 250.1071 109.9539 15.71353780  2149
STARLINK-5695           
1 55485U 23015AN  23045.93863177  .00061604  00000+0  46934-3 0  9991
2 55485  43.0001 312.7171 0001613 256.2546 103.8142 15.71376189  1952
STARLINK-5704           
1 55486U 23015AP  23045.93810707  .00044006  00000+0  33714-3 0  9992
2 55486  43.0002 312.7137 0001660 254.9208 105.1477 15.71363329  2148
STARLINK-5701           
1 55487U 23015AQ  23045.93873575  .00026993  00000+0  20859-3 0  9996
2 55487  43.0000 312.7187 0001567 261.6985  98.3705 15.71359040  2147
STARLINK-5706           
1 55488U 23015AR  23045.93747469  .00014811  00000+0  11612-3 0  9992
2 55488  42.9999 312.7095 0001885 266.5586  93.5066 15.71369780  2144
STARLINK-5371           
1 55489U 23015AS  23045.93821378  .00062839  00000+0  47867-3 0  9999
2 55489  43.0000 312.7138 0001572 257.9565 102.1126 15.71373298  2145
STARLINK-5373           
1 55490U 23015AT  23045.81014489  .00048660  00000+0  37239-3 0  9993
2 55490  42.9999 313.4733 0001478 255.0534 105.0170 15.71352862  2124
STARLINK-5364           
1 55491U 23015AU  23045.93541355  .00109905  00000+0  82857-3 0  9990
2 55491  42.9862 312.6838 0002179 285.4846  74.5781 15.71410349  2148
STARLINK-5013           
1 55492U 23015AV  23045.17483767  .00036974  00000+0  28395-3 0  9991
2 55492  42.9997 317.3119 0002128 271.3953  88.6671 15.71371340  1835
STARLINK-5362           
1 55493U 23015AW  23045.93737211  .00047049  00000+0  35998-3 0  9994
2 55493  43.0004 312.7063 0001352 267.0595  93.0118 15.71370393  2144
STARLINK-5344           
1 55494U 23015AX  23045.81003198  .00005933  00000+0  48645-4 0  9992
2 55494  43.0000 313.4725 0001895 260.0039 100.0615 15.71360569  2125
STARLINK-5100           
1 55495U 23015AY  23045.93768546  .00075700  00000+0  57490-3 0  9997
2 55495  43.0004 312.7091 0002464 256.5670 103.4923 15.71377626  1953
STARLINK-5139           
1 55496U 23015AZ  23045.93684571  .00038338  00000+0  29459-3 0  9993
2 55496  43.0004 312.7028 0001903 243.4833 116.5840 15.71344294  2147
STARLINK-5363           
1 55497U 23015BA  23045.93705420  .00028498  00000+0  21986-3 0  9994
2 55497  43.0002 312.7040 0001671 250.3569 109.7118 15.71372601  2140
STARLINK-5365           
1 55498U 23015BB  23045.93673895  .00019748  00000+0  15358-3 0  9999
2 55498  43.0002 312.7023 0001676 266.4758  93.5919 15.71371475  2142
STARLINK-5366           
1 55499U 23015BC  23045.74584344  .00029765  00000+0  22990-3 0  9999
2 55499  43.0003 313.8520 0001912 275.4788  84.5862 15.71325183  2865
STARLINK-5141           
1 55500U 23015BD  23046.00051326  .00063043  00000+0  48019-3 0  9998
2 55500  42.9997 312.3215 0001640 251.1646 108.9044 15.71373843  2156
STARLINK-5367           
1 55501U 23015BE  23045.93663530  .00062569  00000+0  47668-3 0  9997
2 55501  43.0000 312.7018 0001865 257.3375 102.7284 15.71371172  2145
FALCON 9 DEB            
1 55502U 23015BF  23046.13746782  .00251361  00000+0  10680-2 0  9995
2 55502  42.9906 310.7387 0014699 245.9550 113.9785 15.83656919  2185
FALCON 9 DEB            
1 55503U 23015BG  23046.13354310  .00287363  00000+0  11662-2 0  9990
2 55503  42.9878 310.7047 0017336 241.7924 118.1198 15.84462836  2186
FALCON 9 DEB            
1 55504U 23015BH  23046.12495055  .00280495  00000+0  10727-2 0  9992
2 55504  42.9837 310.6291 0018698 256.9594 102.9192 15.85667812  2182
FALCON 9 DEB            
1 55505U 23015BJ  23045.87148474  .00245269  00000+0  94843-3 0  9996
2 55505  42.9826 312.1661 0020389 249.9176 109.9502 15.85472539  2145
ELEKTRO-L 4             
1 55506U 23016A   23046.01507889 -.00000097  00000+0  00000+0 0  9991
2 55506   0.5439 285.1219 0014869 236.3248 122.6027  1.01514745    95
BLOCK DM-SL R/B         
1 55507U 23016B   23045.09516253 -.00000009  00000+0  00000+0 0  9997
2 55507   0.4183 276.0345 0096485  29.3579  53.6913  1.03218025    92
AMAZONAS NEXUS          
1 55508U 23017A   23040.08992635 -.00000333  00000+0  00000+0 0  9995
2 55508  25.0543 351.1512 8150843 178.8279 187.3709  1.25612863    24
FALCON 9 R/B            
1 55509U 23017B   23038.90000000 -.00000357  00000+0  00000+0 0  9996
2 55509  25.0620 351.4280 8154247 178.3910   7.7600  1.25132475    15
PROGRESS-MS 22          
1 55560U 23018A   23045.69151348  .00024581  00000+0  43647-3 0  9992
2 55560  51.6410 215.2713 0009138 349.1629 116.3348 15.50018653382795
2023-019A               
1 55562U 23019A   23046.25291713  .00039917  00000+0  94109-3 0  9997
2 55562  37.1847  82.6705 0008512   4.8818 355.2022 15.40944807   773
2023-019B               
1 55563U 23019B   23046.24917355  .00046490  00000+0  10519-2 0  9990
2 55563  37.1839  82.6387 0011914  25.3689 334.7653 15.42100358   785
2023-019C               
1 55564U 23019C   23044.55933834  .00402675  00000+0  48122-2 0  9995
2 55564  37.2009  92.8368 0064412  13.9263 114.2638 15.56363903   528
2023-019D               
1 55565U 23019D   23043.26126001 -.00000184  00000+0  00000+0 0  9993
2 55565  37.1996 101.1635 0049675  49.6180  12.8124 15.57660389   311
2023-019E               
1 55566U 23019E   23045.47128457  .00328357  00000+0  48989-2 0  9991
2 55566  37.1939  87.1809 0046267  16.6074 113.8005 15.51840936   654
2023-019F               
1 55567U 23019F   23046.28724867  .00027384  00000+0  44915-3 0  9991
2 55567  37.9005  83.3863 0050486  50.2127 310.3078 15.50158379   786
